[{"OBJECT_NAME":"TRANSPORTER-12 OBJECT AZ","OBJECT_ID":"2025-009AZ","EPOCH":"2026-03-09T17:02:46.667040","MEAN_MOTION":15.30349724,"ECCENTRICITY":9.87e-5,"INCLINATION":97.3981,"RA_OF_ASC_NODE":151.9913,"ARG_OF_PERICENTER":45.3581,"MEAN_ANOMALY":314.774,"EPHEMERIS_TYPE":0,"CLASSIFICATION_TYPE":"U","NORAD_CAT_ID":62656,"ELEMENT_SET_NO":999,"REV_AT_EPOCH":6379,"BSTAR":0.00054902545,"MEAN_MOTION_DOT":0.00016057,"MEAN_MOTION_DDOT":0},{"OBJECT_NAME":"STARLINK-35880","OBJECT_ID":"2025-303AA","EPOCH":"2026-03-09T01:45:38.939040","MEAN_MOTION":15.2758041,"ECCENTRICITY":0.00015817,"INCLINATION":43.0015,"RA_OF_ASC_NODE":313.9591,"ARG_OF_PERICENTER":259.0378,"MEAN_ANOMALY":101.0296,"EPHEMERIS_TYPE":0,"CLASSIFICATION_TYPE":"U","NORAD_CAT_ID":67187,"ELEMENT_SET_NO":999,"REV_AT_EPOCH":1264,"BSTAR":0.0012079101,"MEAN_MOTION_DOT":0.00033127,"MEAN_MOTION_DDOT":0}]
