TRANSPORTER-12 OBJECT AZ
1 62656U 25009AZ  26068.71026235  .00016057  00000+0  54903-3 0  9991
2 62656  97.3981 151.9913 0000987  45.3581 314.7740 15.30349724 63792
STARLINK-35880          
1 67187U 25303AA  26068.07336735  .00033127  00000+0  12079-2 0  9994
2 67187  43.0015 313.9591 0001581 259.0378 101.0296 15.27580410 12649
